LUDI TANCE 1-01A (L-SA*)
1 51284U 22007A   26179.00466994  .00000575  00000+0  67899-4 0  9993
2 51284  97.8098 186.2708 0001620  90.8639 269.2763 14.88419484240089
LUDI TANCE 1-01B (L-SA*)
1 51822U 22018A   26178.97104735  .00000625  00000+0  73280-4 0  9997
2 51822  97.8103 186.2348 0001594  91.0801 269.0599 14.88411019235319
2022-023F               
1 51951U 22023F   26178.88249840  .00013866  00000+0  55058-3 0  9996
2 51951  63.4445 237.1201 0131500 342.0554  17.5937 15.17922279239335
MERIDIAN 10             
1 52145U 22030A   26178.43783372  .00000155  00000+0  00000+0 0  9994
2 52145  62.6789 139.6815 6786733 272.8508  17.6297  2.00612430 31231
OMNI-L1                 
1 52157U 22033A   26178.77366479  .00001926  00000+0  24467-3 0  9996
2 52157  97.8397 257.7454 0003985 241.1337 118.9477 14.82785743229026
ENMAP                   
1 52159U 22033C   26178.95172852  .00000391  00000+0  65653-4 0  9996
2 52159  97.9797 261.0493 0001416  85.8703 274.2668 14.74996309228245
ARCSAT-1                
1 52161U 22033E   26178.04377386  .00013510  00000+0  21150-3 0  9998
2 52161  97.2760 270.4637 0005761 148.0597 212.1007 15.53844188237237
GLOBAL-18               
1 52196U 22034B   26178.78898586  .00014865  00000+0  30130-3 0  9990
2 52196  52.9795 205.9563 0003692 329.4784  30.6006 15.46637381238607
GAOFEN-3 03             
1 52200U 22035A   26178.98326623 -.00000032  00000+0  35648-5 0  9990
2 52200  98.4061 187.4068 0001539  99.3617 260.7747 14.42216120222402
DAQI-1                  
1 52257U 22039A   26178.99093668  .00000192  00000+0  51954-4 0  9990
2 52257  98.1480 117.6197 0002712 202.5165 157.5916 14.57683286223515
BRO-6                   
1 52422U 22047AE  26178.91290890  .00035590  00000+0  60695-3 0  9992
2 52422  97.3405 270.1781 0004084  39.5620 320.5929 15.51264232232819
JILIN-1 GAOFEN 3D27     
1 52444U 22048B   26178.94539156  .00136470  00000+0  79768-3 0  9991
2 52444  97.5722 293.8757 0002512 290.7882  69.3114 15.77975481231172
JILIN-1 GAOFEN 3D28     
1 52445U 22048C   26178.92228563  .00168764  00000+0  83594-3 0  9990
2 52445  97.5656 294.0475 0002015 262.7562  97.3477 15.81556781231223
VIGORIDE-3              
1 52760U 22057AE  26178.89573522  .00005420  00000+0  20483-3 0  9991
2 52760  97.6614 319.1547 0009728  88.0984 272.1369 15.27387191226798
ION SCV-006             
1 52761U 22057AF  26178.84882469  .00012425  00000+0  25907-3 0  9999
2 52761  97.6103 327.9840 0018162  77.7841 282.5440 15.45539377227762
SHERPA-AC1              
1 52763U 22057AH  26178.87884296  .00007476  00000+0  21274-3 0  9997
2 52763  97.6691 328.5520 0008597  60.9900 299.2204 15.36409101227347
OMNI-L2                 
1 52771U 22057AR  26178.86236502  .00001338  00000+0  17723-3 0  9991
2 52771  97.4711 240.5033 0005115 293.8690  66.1988 14.81396662221974
STEP CUBE LAB-II        
1 52897U 22065D   26178.93976881  .00000966  00000+0  19645-3 0  9999
2 52897  98.2233 322.8088 0008583   0.6829 359.4383 14.63319643213078
RANDEV                  
1 52898U 22065E   26178.93800045  .00000941  00000+0  19000-3 0  9996
2 52898  98.2219 323.1635 0007919   1.6577 358.4650 14.63707573212829
SNUGLITE-II             
1 52899U 22065F   26178.89551672  .00000918  00000+0  18296-3 0  9991
2 52899  98.2213 323.7075 0007253   0.7997 359.3216 14.64365971212567
MIMAN                   
1 52900U 22065G   26178.86293906  .00000527  00000+0  11500-3 0  9991
2 52900  98.2273 321.2921 0007487   2.9805 357.1439 14.61854501212001
STARLINK-4362           
1 53043U 22077A   26178.50021328  .00000436  00000+0  34111-4 0  9994
2 53043  97.3061 356.9287 0001882  87.6980 272.4463 15.05652387217437
LARES-2                 
1 53105U 22080A   26177.40365794 -.00000028  00000+0  00000+0 0  9996
2 53105  70.1592 302.1681 0005264 334.1364  25.8897  6.38965133 92253
GREENCUBE (IO-117)      
1 53109U 22080E   26178.76757484 -.00000003  00000+0  00000+0 0  9994
2 53109  70.1441 294.5656 0008983 287.3296  72.6381  6.42583239 92740
STARLINK-4410           
1 53204U 22084R   26178.91668981  .00040500  00000+0  11256-2 0  9997
2 53204  97.6004 240.3062 0001178  80.4411 294.0495 15.36752056  5844
COSMOS 2558             
1 53323U 22089A   26178.87559994  .00115377  00000+0  69319-3 0  9991
2 53323  97.2251 283.3912 0002226 243.4315 116.6724 15.77415929219511
TECMS                   
1 53346U 22090A   26178.94517170  .00003799  00000+0  17194-3 0  9994
2 53346  97.3141 246.7501 0004498 143.7669 216.3873 15.21477447216443
