OBJECT_NAME,OBJECT_ID,EPOCH,MEAN_MOTION,ECCENTRICITY,INCLINATION,RA_OF_ASC_NODE,ARG_OF_PERICENTER,MEAN_ANOMALY,EPHEMERIS_TYPE,CLASSIFICATION_TYPE,NORAD_CAT_ID,ELEMENT_SET_NO,REV_AT_EPOCH,BSTAR,MEAN_MOTION_DOT,MEAN_MOTION_DDOT
LUDI TANCE 1-01A (L-SAR 01A),2022-007A,2026-06-28T00:06:43.482816,14.88419484,.00016201,97.8098,186.2708,90.8639,269.2763,0,U,51284,999,24008,.67898706E-4,.575E-5,0
LUDI TANCE 1-01B (L-SAR 01B),2022-018A,2026-06-27T23:18:18.491040,14.88411019,.00015946,97.8103,186.2348,91.0801,269.0599,0,U,51822,999,23531,.73280249E-4,.625E-5,0
2022-023F,2022-023F,2026-06-27T21:10:47.861760,15.17922279,.01315,63.4445,237.1201,342.0554,17.5937,0,U,51951,999,23933,.55058E-3,.13866E-3,0
MERIDIAN 10,2022-030A,2026-06-27T10:30:28.833408,2.00612430,.67867335,62.6789,139.6815,272.8508,17.6297,0,U,52145,999,3123,0,.155E-5,0
OMNI-L1,2022-033A,2026-06-27T18:34:04.637856,14.82785743,.00039854,97.8397,257.7454,241.1337,118.9477,0,U,52157,999,22902,.24466589E-3,.1926E-4,0
ENMAP,2022-033C,2026-06-27T22:50:29.344128,14.74996309,.00014168,97.9797,261.0493,85.8703,274.2668,0,U,52159,999,22824,.65653024E-4,.391E-5,0
ARCSAT-1,2022-033E,2026-06-27T01:03:02.061504,15.53844188,.00057613,97.2760,270.4637,148.0597,212.1007,0,U,52161,999,23723,.21150078E-3,.1351E-3,0
GLOBAL-18,2022-034B,2026-06-27T18:56:08.378304,15.46637381,.00036929,52.9795,205.9563,329.4784,30.6006,0,U,52196,999,23860,.30130029E-3,.14865E-3,0
GAOFEN-3 03,2022-035A,2026-06-27T23:35:54.202272,14.42216120,.00015397,98.4061,187.4068,99.3617,260.7747,0,U,52200,999,22240,.3564786E-5,-.32E-6,0
DAQI-1,2022-039A,2026-06-27T23:46:56.929152,14.57683286,.00027129,98.1480,117.6197,202.5165,157.5916,0,U,52257,999,22351,.51954284E-4,.192E-5,0
BRO-6,2022-047AE,2026-06-27T21:54:35.328960,15.51264232,.00040843,97.3405,270.1781,39.5620,320.5929,0,U,52422,999,23281,.60694623E-3,.3559E-3,0
JILIN-1 GAOFEN 3D27,2022-048B,2026-06-27T22:41:21.830784,15.77975481,.00025125,97.5722,293.8757,290.7882,69.3114,0,U,52444,999,23117,.79767925E-3,.13647E-2,0
JILIN-1 GAOFEN 3D28,2022-048C,2026-06-27T22:08:05.478432,15.81556781,.00020157,97.5656,294.0475,262.7562,97.3477,0,U,52445,999,23122,.83593601E-3,.168764E-2,0
VIGORIDE-3,2022-057AE,2026-06-27T21:29:51.523008,15.27387191,.00097289,97.6614,319.1547,88.0984,272.1369,0,U,52760,999,22679,.20483202E-3,.542E-4,0
ION SCV-006,2022-057AF,2026-06-27T20:22:18.453216,15.45539377,.00181623,97.6103,327.9840,77.7841,282.5440,0,U,52761,999,22776,.2590658E-3,.12425E-3,0
SHERPA-AC1,2022-057AH,2026-06-27T21:05:32.031744,15.36409101,.00085972,97.6691,328.5520,60.9900,299.2204,0,U,52763,999,22734,.21273655E-3,.7476E-4,0
OMNI-L2,2022-057AR,2026-06-27T20:41:48.337728,14.81396662,.00051152,97.4711,240.5033,293.8690,66.1988,0,U,52771,999,22197,.17722513E-3,.1338E-4,0
STEP CUBE LAB-II,2022-065D,2026-06-27T22:33:16.025184,14.63319643,.00085836,98.2233,322.8088,0.6829,359.4383,0,U,52897,999,21307,.19644901E-3,.966E-5,0
RANDEV,2022-065E,2026-06-27T22:30:43.238880,14.63707573,.00079192,98.2219,323.1635,1.6577,358.4650,0,U,52898,999,21282,.19000417E-3,.941E-5,0
SNUGLITE-II,2022-065F,2026-06-27T21:29:32.644608,14.64365971,.00072535,98.2213,323.7075,0.7997,359.3216,0,U,52899,999,21256,.18295682E-3,.918E-5,0
MIMAN,2022-065G,2026-06-27T20:42:37.934784,14.61854501,.00074874,98.2273,321.2921,2.9805,357.1439,0,U,52900,999,21200,.11499672E-3,.527E-5,0
STARLINK-4362,2022-077A,2026-06-27T12:00:18.427392,15.05652387,.00018821,97.3061,356.9287,87.6980,272.4463,0,U,53043,999,21743,.34111403E-4,.436E-5,0
LARES-2,2022-080A,2026-06-26T09:41:16.046016,6.38965133,.0005264,70.1592,302.1681,334.1364,25.8897,0,U,53105,999,9225,0,-.28E-6,0
GREENCUBE (IO-117),2022-080E,2026-06-27T18:25:18.466176,6.42583239,.00089839,70.1441,294.5656,287.3296,72.6381,0,U,53109,999,9274,0,-.3E-7,0
STARLINK-4410,2022-084R,2026-06-27T22:00:01.999584,15.36752056,.00011784,97.6004,240.3062,80.4411,294.0495,0,U,53204,999,584,.11256456E-2,.405E-3,0
COSMOS 2558,2022-089A,2026-06-27T21:00:51.834816,15.77415929,.0002226,97.2251,283.3912,243.4315,116.6724,0,U,53323,999,21951,.69319E-3,.115377E-2,0
TECMS,2022-090A,2026-06-27T22:41:02.834880,15.21477447,.00044989,97.3141,246.7501,143.7669,216.3873,0,U,53346,999,21644,.17193891E-3,.3799E-4,0
